NORAD_CAT_ID,OBJECT_NAME,OBJECT_TYPE,EPOCH,MEAN_MOTION,ECCENTRICITY,INCLINATION,RA_OF_ASC_NODE,ARG_OF_PERICENTER,MEAN_ANOMALY,BSTAR,MEAN_MOTION_DOT,MEAN_MOTION_DDOT,TLE_LINE0,TLE_LINE1,TLE_LINE2,SEMIMAJOR_AXIS,PERIOD,APOGEE,PERIGEE,DECAYED
51977.0,STARLINK-3660,PAYLOAD,2023-03-16 04:00:03,15.08836367,0.0001477,53.2118,230.1805,96.361,263.755,-1.468e-05,-5.22e-06,0.0,0 STARLINK-3660,1 51977U 22025X   23075.16670761 -.00000522  00000-0 -14680-4 0  9995,2 51977  53.2118 230.1805 0001477  96.3610 263.7550 15.08836367 57944,6917.891,95.438,540.778,538.735,0.0
51977.0,STARLINK-3660,PAYLOAD,2023-03-16 11:56:59,15.08826817,8.76e-05,53.2151,228.6928,125.2266,234.8808,-0.00024714,-4.217e-05,0.0,0 STARLINK-3660,1 51977U 22025X   23075.49791164 -.00004217  00000-0 -24714-3 0  9995,2 51977  53.2151 228.6928 0000876 125.2266 234.8808 15.08826817 57999,6917.921,95.438,540.392,539.18,0.0
51977.0,STARLINK-3660,PAYLOAD,2023-03-16 19:53:58,15.08801695,6.11e-05,53.2152,227.2076,90.5663,269.5399,-0.00032588,-5.465e-05,0.0,0 STARLINK-3660,1 51977U 22025X   23075.82914354 -.00005465  00000-0 -32588-3 0  9994,2 51977  53.2152 227.2076 0000611  90.5663 269.5399 15.08801695 58045,6917.997,95.44,540.285,539.44,0.0
51977.0,STARLINK-3660,PAYLOAD,2023-03-17 13:23:42,15.08507559,0.0001554,53.2136,223.9338,147.3513,212.7575,-0.0024545,-0.00038789,0.0,0 STARLINK-3660,1 51977U 22025X   23076.55813131 -.00038789  00000-0 -24545-2 0  9994,2 51977  53.2136 223.9338 0001554 147.3513 212.7575 15.08507559 58153,6918.897,95.459,541.837,539.687,0.0
51977.0,STARLINK-3660,PAYLOAD,2023-03-17 19:45:31,15.08358718,6.83e-05,53.2166,222.7497,86.9333,273.1737,-0.003645,-0.00057082,0.0,0 STARLINK-3660,1 51977U 22025X   23076.82327631 -.00057082  00000-0 -36450-2 0  9994,2 51977  53.2166 222.7497 0000683  86.9333 273.1737 15.08358718 58195,6919.352,95.468,541.689,540.744,0.0
51977.0,STARLINK-3660,PAYLOAD,2023-03-18 02:07:12,15.08318279,0.000111,53.2152,221.5616,102.4265,257.6851,-0.0034203,-0.0005355,0.0,0 STARLINK-3660,1 51977U 22025X   23077.08834257 -.00053550  00000-0 -34203-2 0  9990,2 51977  53.2152 221.5616 0001110 102.4265 257.6851 15.08318279 58231,6919.476,95.471,542.109,540.572,0.0
51977.0,STARLINK-3660,PAYLOAD,2023-03-18 13:15:05,15.08341403,0.0001275,53.2158,219.4799,97.6387,262.4749,-0.0026462,-0.0004159,0.0,0 STARLINK-3660,1 51977U 22025X   23077.55214172 -.00041590  00000-0 -26462-2 0  9999,2 51977  53.2158 219.4799 0001275  97.6387 262.4749 15.08341403 58300,6919.405,95.469,542.152,540.388,0.0
51977.0,STARLINK-3660,PAYLOAD,2023-03-18 16:25:49,15.08404939,9.96e-05,53.2158,218.8849,82.5146,277.5959,-0.0019868,-0.00031396,0.0,0 STARLINK-3660,1 51977U 22025X   23077.68460466 -.00031396  00000-0 -19868-2 0  9997,2 51977  53.2158 218.8849 0000996  82.5146 277.5959 15.08404939 58320,6919.211,95.465,541.765,540.386,0.0
51977.0,STARLINK-3660,PAYLOAD,2023-03-19 01:58:05,15.08514189,0.000451,53.2155,217.1009,99.0757,261.0746,0.0017038,0.00026695,0.0,0 STARLINK-3660,1 51977U 22025X   23078.08200741  .00026695  00000-0  17038-2 0  9991,2 51977  53.2155 217.1009 0004510  99.0757 261.0746 15.08514189 58381,6918.876,95.458,543.862,537.621,0.0
51977.0,STARLINK-3660,PAYLOAD,2023-03-19 14:00:01,15.08824869,9.45e-05,53.2145,214.8531,81.0655,122.4823,-0.0012975,-0.00020869,0.0,0 STARLINK-3660,1 51977U 22025X   23078.58334491 -.00020869  00000-0 -12975-2 0  9990,2 51977  53.2145 214.8531 0000945  81.0655 122.4823 15.08824869  1305,6917.927,95.439,540.445,539.138,0.0
51977.0,STARLINK-3660,PAYLOAD,2023-03-19 14:41:17,15.08498589,0.0001242,53.2164,214.7225,103.6757,256.4373,0.0035707,0.00056464,0.0,0 STARLINK-3660,1 51977U 22025X   23078.61200506  .00056464  00000-0  35707-2 0  9999,2 51977  53.2164 214.7225 0001242 103.6757 256.4373 15.08498589 58463,6918.924,95.459,541.648,539.93,0.0
51977.0,STARLINK-3660,PAYLOAD,2023-03-19 21:02:53,15.08532796,0.000106,53.216,213.5337,87.949,272.1624,0.0036173,0.00057265,0.0,0 STARLINK-3660,1 51977U 22025X   23078.87701083  .00057265  00000-0  36173-2 0  9991,2 51977  53.2160 213.5337 0001060  87.9490 272.1624 15.08532796 58504,6918.82,95.457,541.418,539.951,0.0
51977.0,STARLINK-3660,PAYLOAD,2023-03-20 01:49:07,15.0852979,0.0001154,53.2156,212.6417,87.9881,272.1243,0.0034469,0.00054528,0.0,0 STARLINK-3660,1 51977U 22025X   23079.07578363  .00054528  00000-0  34469-2 0  9992,2 51977  53.2156 212.6417 0001154  87.9881 272.1243 15.08529790 58536,6918.829,95.457,541.492,539.895,0.0
51977.0,STARLINK-3660,PAYLOAD,2023-03-20 12:56:54,15.08585922,7.68e-05,53.2161,210.5607,98.0734,262.0345,0.0033038,0.00052316,0.0,0 STARLINK-3660,1 51977U 22025X   23079.53952418  .00052316  00000-0  33038-2 0  9994,2 51977  53.2161 210.5607 0000768  98.0734 262.0345 15.08585922 57517,6918.657,95.454,541.053,539.991,0.0
51977.0,STARLINK-3660,PAYLOAD,2023-03-20 14:32:18,15.08602293,0.0001228,53.217,210.2624,107.8947,252.2179,0.0032497,0.00051472,0.0,0 STARLINK-3660,1 51977U 22025X   23079.60576604  .00051472  00000-0  32497-2 0  9991,2 51977  53.2170 210.2624 0001228 107.8947 252.2179 15.08602293 58619,6918.607,95.453,541.322,539.622,0.0
51977.0,STARLINK-3660,PAYLOAD,2023-03-20 16:07:42,15.08607876,0.0001265,53.2168,209.9655,99.2903,260.8233,0.0032318,0.00051193,0.0,0 STARLINK-3660,1 51977U 22025X   23079.67201411  .00051193  00000-0  32318-2 0  9991,2 51977  53.2168 209.9655 0001265  99.2903 260.8233 15.08607876 57530,6918.59,95.452,541.33,539.58,0.0
51977.0,STARLINK-3660,PAYLOAD,2023-03-20 20:53:51,15.08663348,0.0001153,53.2159,209.0719,108.0395,252.0722,0.0028995,0.00045935,0.0,0 STARLINK-3660,1 51977U 22025X   23079.87073188  .00045935  00000-0  28995-2 0  9994,2 51977  53.2159 209.0719 0001153 108.0395 252.0722 15.08663348 58658,6918.42,95.449,541.083,539.488,0.0
51977.0,STARLINK-3660,PAYLOAD,2023-03-21 12:47:40,15.08832959,8.86e-05,53.2174,206.0999,79.4267,280.6825,0.00022949,3.366e-05,0.0,0 STARLINK-3660,1 51977U 22025X   23080.53311294  .00003366  00000-0  22949-3 0  9998,2 51977  53.2174 206.0999 0000886  79.4267 280.6825 15.08832959 57660,6917.902,95.438,540.38,539.154,0.0
51977.0,STARLINK-3660,PAYLOAD,2023-03-21 20:44:34,15.0886779,0.0001016,53.216,204.6125,100.0401,260.0705,0.00029517,4.416e-05,0.0,0 STARLINK-3660,1 51977U 22025X   23080.86428654  .00004416  00000-0  29517-3 0  9998,2 51977  53.2160 204.6125 0001016 100.0401 260.0705 15.08867790 58804,6917.795,95.436,540.363,538.958,0.0
51977.0,STARLINK-3660,PAYLOAD,2023-03-22 01:30:47,15.08822224,0.0001076,53.2159,203.7206,95.1053,265.0062,-0.00012602,-2.292e-05,0.0,0 STARLINK-3660,1 51977U 22025X   23081.06304628 -.00002292  00000-0 -12602-3 0  9994,2 51977  53.2159 203.7206 0001076  95.1053 265.0062 15.08822224 58832,6917.935,95.439,540.544,539.055,0.0
51977.0,STARLINK-3660,PAYLOAD,2023-03-22 12:38:28,15.08839289,0.0001554,53.2159,201.6403,86.5909,273.526,6.0104e-05,6.69e-06,0.0,0 STARLINK-3660,1 51977U 22025X   23081.52671535  .00000669  00000-0  60104-4 0  9994,2 51977  53.2159 201.6403 0001554  86.5909 273.5260 15.08839289 58904,6917.883,95.438,540.823,538.673,0.0
51977.0,STARLINK-3660,PAYLOAD,2023-03-22 20:35:22,15.08859833,0.0001254,53.2174,200.1478,107.9566,252.1563,0.00013304,1.831e-05,0.0,0 STARLINK-3660,1 51977U 22025X   23081.85789644  .00001831  00000-0  13304-3 0  9992,2 51977  53.2174 200.1478 0001254 107.9566 252.1563 15.08859833 57861,6917.82,95.436,540.552,538.817,0.0
51977.0,STARLINK-3660,PAYLOAD,2023-03-23 01:21:31,15.08859991,0.0001172,53.2178,199.256,101.25,258.8624,0.00017374,2.48e-05,0.0,0 STARLINK-3660,1 51977U 22025X   23082.05661365  .00002480  00000-0  17374-3 0  9996,2 51977  53.2178 199.2560 0001172 101.2500 258.8624 15.08859991 58989,6917.819,95.436,540.495,538.874,0.0
51977.0,STARLINK-3660,PAYLOAD,2023-03-23 12:29:15,15.08833748,0.0001133,53.2184,197.1785,61.7541,298.3566,-1.5489e-05,-5.34e-06,0.0,0 STARLINK-3660,1 51977U 22025X   23082.52031935 -.00000534  00000-0 -15489-4 0  9998,2 51977  53.2184 197.1785 0001133  61.7541 298.3566 15.08833748 59059,6917.899,95.438,540.548,538.981,0.0
51977.0,STARLINK-3660,PAYLOAD,2023-03-23 14:04:37,15.08859878,0.0001114,53.2157,196.881,102.9634,257.1483,1.2248e-05,-9.3e-07,0.0,0 STARLINK-3660,1 51977U 22025X   23082.58654152 -.00000093  00000-0  12248-4 0  9995,2 51977  53.2157 196.8810 0001114 102.9634 257.1483 15.08859878 57976,6917.82,95.436,540.455,538.914,0.0
51977.0,STARLINK-3660,PAYLOAD,2023-03-24 12:19:59,15.08892324,0.0001543,53.2154,192.7201,98.0368,262.0799,0.00094645,0.00014828,0.0,0 STARLINK-3660,1 51977U 22025X   23083.51388329  .00014828  00000-0  94645-3 0  9999,2 51977  53.2154 192.7201 0001543  98.0368 262.0799 15.08892324 59203,6917.72,95.434,540.653,538.518,0.0
51977.0,STARLINK-3660,PAYLOAD,2023-03-24 13:55:22,15.08903219,0.0001514,53.215,192.4206,118.7872,241.3272,0.0010939,0.00017194,0.0,0 STARLINK-3660,1 51977U 22025X   23083.58011755  .00017194  00000-0  10939-2 0  9994,2 51977  53.2150 192.4206 0001514 118.7872 241.3272 15.08903219 58121,6917.687,95.434,540.599,538.505,0.0
51977.0,STARLINK-3660,PAYLOAD,2023-03-24 17:06:07,15.08914445,0.0001111,53.216,191.8271,106.4462,253.6652,0.0012273,0.00019338,0.0,0 STARLINK-3660,1 51977U 22025X   23083.71258817  .00019338  00000-0  12273-2 0  9996,2 51977  53.2160 191.8271 0001111 106.4462 253.6652 15.08914445 59233,6917.653,95.433,540.286,538.749,0.0
51977.0,STARLINK-3660,PAYLOAD,2023-03-25 12:10:50,15.08799941,0.0001293,53.2149,188.2594,70.4705,289.6426,-0.0007176,-0.00011678,0.0,0 STARLINK-3660,1 51977U 22025X   23084.50752710 -.00011678  00000-0 -71760-3 0  9993,2 51977  53.2149 188.2594 0001293  70.4705 289.6426 15.08799941 59352,6918.003,95.44,540.762,538.973,0.0
51977.0,STARLINK-3660,PAYLOAD,2023-03-25 16:56:59,15.08797591,0.0001243,53.2152,187.3628,101.1922,258.921,-0.00052769,-8.666e-05,0.0,0 STARLINK-3660,1 51977U 22025X   23084.70624835 -.00008666  00000-0 -52769-3 0  9992,2 51977  53.2152 187.3628 0001243 101.1922 258.9210 15.08797591 58293,6918.01,95.44,540.735,539.015,0.0
